ORBCOMM FM33 [-]        
1 25983U 99065D   24058.15288446  .00001396  00000+0  51006-3 0  9996
2 25983  45.0290  97.3298 0009212 200.6476 202.5271 14.37353690267517
ORBCOMM FM36 [-]        
1 25984U 99065E   24058.63226521  .00001561  00000+0  58966-3 0  9992
2 25984  45.0390 179.3072 0002269  89.7686 270.3422 14.35225469266031
ORBCOMM FM35 [+]        
1 25985U 99065F   24058.65448911  .00001390  00000+0  53426-3 0  9990
2 25985  45.0388 181.6341 0004260 189.4854 170.5913 14.34861093266621
ORBCOMM FM34 [-]        
1 25986U 99065G   24058.62299149  .00001425  00000+0  54688-3 0  9995
2 25986  45.0384 182.2995 0003721 141.6479 218.4633 14.34819311266542
ORBCOMM FM38 [-]        
1 33060U 08031A   24058.38096626  .00002897  00000+0  43552-3 0  9990
2 33060  48.4413  55.0405 0005008 165.5536 194.5522 14.77015645844319
ORBCOMM FM41 [-]        
1 33061U 08031B   24058.28057376  .00002778  00000+0  42136-3 0  9994
2 33061  48.4447  61.9667 0004036 150.6504 222.8833 14.76752170843806
ORBCOMM FM29 [-]        
1 33062U 08031C   24058.42868681  .00002687  00000+0  40927-3 0  9995
2 33062  48.4396  69.2919 0005862 148.3828  15.2909 14.76668525843732
ORBCOMM FM39 [-]        
1 33063U 08031D   24058.45116294  .00002249  00000+0  35481-3 0  9998
2 33063  48.4403  89.1711 0006664 122.2245 237.9315 14.75737299843444
